start=new Date('2021-08-23T00:00:00.000Z').valueOf();
sats=[{"APOAPSIS":"547.807","OBJECT_TYPE":"PAYLOAD","TIME_SYSTEM":"UTC","OBJECT_NAME":"STARLINK-1707","NORAD_CAT_ID":"46359","ARG_OF_PERICENTER":"57.3215","PERIOD":"95.592","MEAN_ELEMENT_THEORY":"SGP4","RA_OF_ASC_NODE":"223.7192","FILE":"3101563","MEAN_MOTION_DDOT":"0.0000000000000","REF_FRAME":"TEME","SITE":"AFETR","EPOCH":"2021-08-22T16:12:33.651936","ECCENTRICITY":"0.00008950","LAUNCH_DATE":"2020-09-03","CLASSIFICATION_TYPE":"U","OBJECT_ID":"2020-062AL","GP_ID":"183272368","RCS_SIZE":"LARGE","ELEMENT_SET_NO":"999","MEAN_MOTION_DOT":"0.00000575","TLE_LINE2":"2 46359  53.0537 223.7192 0000895  57.3215 302.7861 15.06408709 54739","COUNTRY_CODE":"US","EPHEMERIS_TYPE":"0","MEAN_ANOMALY":"302.7861","REV_AT_EPOCH":"5473","DECAY_DATE":null,"TLE_LINE1":"1 46359U 20062AL  21234.67538949  .00000575  00000-0  57496-4 0  9992","SEMIMAJOR_AXIS":"6925.322","MEAN_MOTION":"15.06408709","BSTAR":"0.00005749600000","PERIAPSIS":"546.567","INCLINATION":"53.0537","CENTER_NAME":"EARTH"},{"SEMIMAJOR_AXIS":"6925.289","MEAN_MOTION":"15.06419449","TLE_LINE1":"1 46360U 20062AM  21234.69750273 -.00000707  00000-0 -28533-4 0  9991","CENTER_NAME":"EARTH","INCLINATION":"53.0557","PERIAPSIS":"546.379","BSTAR":"-0.00002853300000","RCS_SIZE":"LARGE","ELEMENT_SET_NO":"999","TLE_LINE2":"2 46360  53.0557 223.6223 0001119  55.7106 304.3989 15.06419449 54741","MEAN_MOTION_DOT":"-0.00000707","GP_ID":"183271116","OBJECT_ID":"2020-062AM","DECAY_DATE":null,"EPHEMERIS_TYPE":"0","COUNTRY_CODE":"US","REV_AT_EPOCH":"5474","MEAN_ANOMALY":"304.3989","REF_FRAME":"TEME","MEAN_MOTION_DDOT":"0.0000000000000","EPOCH":"2021-08-22T16:44:24.235872","SITE":"AFETR","FILE":"3101563","LAUNCH_DATE":"2020-09-03","ECCENTRICITY":"0.00011190","CLASSIFICATION_TYPE":"U","OBJECT_NAME":"STARLINK-1713","NORAD_CAT_ID":"46360","ARG_OF_PERICENTER":"55.7106","APOAPSIS":"547.929","OBJECT_TYPE":"PAYLOAD","TIME_SYSTEM":"UTC","MEAN_ELEMENT_THEORY":"SGP4","PERIOD":"95.591","RA_OF_ASC_NODE":"223.6223"},{"LAUNCH_DATE":"2020-09-03","ECCENTRICITY":"0.00012430","CLASSIFICATION_TYPE":"U","FILE":"3101563","MEAN_MOTION_DDOT":"0.0000000000000","REF_FRAME":"TEME","EPOCH":"2021-08-22T16:01:56.379360","SITE":"AFETR","MEAN_ELEMENT_THEORY":"SGP4","PERIOD":"95.592","RA_OF_ASC_NODE":"223.7523","APOAPSIS":"548.055","OBJECT_TYPE":"PAYLOAD","TIME_SYSTEM":"UTC","OBJECT_NAME":"STARLINK-1722","NORAD_CAT_ID":"46361","ARG_OF_PERICENTER":"48.8469","BSTAR":"-0.00005641600000","PERIAPSIS":"546.333","INCLINATION":"53.0541","CENTER_NAME":"EARTH","TLE_LINE1":"1 46361U 20062AN  21234.66801365 -.00001122  00000-0 -56416-4 0  9991","SEMIMAJOR_AXIS":"6925.329","MEAN_MOTION":"15.06406460","COUNTRY_CODE":"US","EPHEMERIS_TYPE":"0","REV_AT_EPOCH":"5473","MEAN_ANOMALY":"311.2627","DECAY_DATE":null,"GP_ID":"183271366","OBJECT_ID":"2020-062AN","RCS_SIZE":"LARGE","ELEMENT_SET_NO":"999","MEAN_MOTION_DOT":"-0.00001122","TLE_LINE2":"2 46361  53.0541 223.7523 0001243  48.8469 311.2627 15.06406460 54736"},{"MEAN_ELEMENT_THEORY":"SGP4","PERIOD":"95.593","RA_OF_ASC_NODE":"224.7467","APOAPSIS":"548.148","TIME_SYSTEM":"UTC","OBJECT_TYPE":"PAYLOAD","NORAD_CAT_ID":"46362","OBJECT_NAME":"STARLINK-1726","ARG_OF_PERICENTER":"53.0496","LAUNCH_DATE":"2020-09-03","ECCENTRICITY":"0.00012980","CLASSIFICATION_TYPE":"U","FILE":"3101421","REF_FRAME":"TEME","MEAN_MOTION_DDOT":"0.0000000000000","EPOCH":"2021-08-22T10:43:30.183168","SITE":"AFETR","EPHEMERIS_TYPE":"0","COUNTRY_CODE":"US","REV_AT_EPOCH":"5488","MEAN_ANOMALY":"307.0612","DECAY_DATE":null,"GP_ID":"183247602","OBJECT_ID":"2020-062AP","RCS_SIZE":"LARGE","ELEMENT_SET_NO":"999","MEAN_MOTION_DOT":"0.00000591","TLE_LINE2":"2 46362  53.0525 224.7467 0001298  53.0496 307.0612 15.06388247 54880","BSTAR":"0.00005859800000","PERIAPSIS":"546.351","INCLINATION":"53.0525","CENTER_NAME":"EARTH","TLE_LINE1":"1 46362U 20062AP  21234.44687712  .00000591  00000-0  58598-4 0  9996","SEMIMAJOR_AXIS":"6925.385","MEAN_MOTION":"15.06388247"},{"DECAY_DATE":null,"COUNTRY_CODE":"US","EPHEMERIS_TYPE":"0","REV_AT_EPOCH":"5475","MEAN_ANOMALY":"328.9738","RCS_SIZE":"LARGE","ELEMENT_SET_NO":"999","TLE_LINE2":"2 46363  53.0531 223.2894 0000885  31.1303 328.9738 15.06401181 54751","MEAN_MOTION_DOT":"0.00000598","GP_ID":"183272869","OBJECT_ID":"2020-062AQ","CENTER_NAME":"EARTH","BSTAR":"0.00005899400000","PERIAPSIS":"546.597","INCLINATION":"53.0531","SEMIMAJOR_AXIS":"6925.345","MEAN_MOTION":"15.06401181","TLE_LINE1":"1 46363U 20062AQ  21234.77123855  .00000598  00000-0  58994-4 0  9993","MEAN_ELEMENT_THEORY":"SGP4","PERIOD":"95.592","RA_OF_ASC_NODE":"223.2894","NORAD_CAT_ID":"46363","OBJECT_NAME":"STARLINK-1739","ARG_OF_PERICENTER":"31.1303","APOAPSIS":"547.823","TIME_SYSTEM":"UTC","OBJECT_TYPE":"PAYLOAD","LAUNCH_DATE":"2020-09-03","ECCENTRICITY":"0.00008850","CLASSIFICATION_TYPE":"U","MEAN_MOTION_DDOT":"0.0000000000000","REF_FRAME":"TEME","EPOCH":"2021-08-22T18:30:35.010720","SITE":"AFETR","FILE":"3101563"},{"APOAPSIS":"551.361","OBJECT_TYPE":"PAYLOAD","TIME_SYSTEM":"UTC","NORAD_CAT_ID":"46364","OBJECT_NAME":"STARLINK-1763","ARG_OF_PERICENTER":"284.1624","MEAN_ELEMENT_THEORY":"SGP4","PERIOD":"95.592","RA_OF_ASC_NODE":"202.6197","FILE":"3101563","MEAN_MOTION_DDOT":"0.0000000000000","REF_FRAME":"TEME","EPOCH":"2021-08-22T22:05:31.558560","SITE":"AFETR","LAUNCH_DATE":"2020-09-03","ECCENTRICITY":"0.00060170","CLASSIFICATION_TYPE":"U","GP_ID":"183271617","OBJECT_ID":"2020-062AR","ELEMENT_SET_NO":"999","RCS_SIZE":"LARGE","MEAN_MOTION_DOT":"0.00000751","TLE_LINE2":"2 46364  53.0547 202.6197 0006017 284.1624  75.8696 15.06406435 55057","COUNTRY_CODE":"US","EPHEMERIS_TYPE":"0","REV_AT_EPOCH":"5505","MEAN_ANOMALY":"75.8696","DECAY_DATE":null,"TLE_LINE1":"1 46364U 20062AR  21234.92050415  .00000751  00000-0  69412-4 0  9990","SEMIMAJOR_AXIS":"6925.329","MEAN_MOTION":"15.06406435","BSTAR":"0.00006941200000","PERIAPSIS":"543.027","INCLINATION":"53.0547","CENTER_NAME":"EARTH"},{"MEAN_ELEMENT_THEORY":"SGP4","PERIOD":"95.591","RA_OF_ASC_NODE":"223.6858","OBJECT_NAME":"STARLINK-1550","NORAD_CAT_ID":"46365","ARG_OF_PERICENTER":"69.9681","APOAPSIS":"547.900","OBJECT_TYPE":"PAYLOAD","TIME_SYSTEM":"UTC","LAUNCH_DATE":"2020-09-03","ECCENTRICITY":"0.00010390","CLASSIFICATION_TYPE":"U","REF_FRAME":"TEME","MEAN_MOTION_DDOT":"0.0000000000000","EPOCH":"2021-08-22T16:23:10.637664","SITE":"AFETR","FILE":"3101563","DECAY_DATE":null,"COUNTRY_CODE":"US","EPHEMERIS_TYPE":"0","REV_AT_EPOCH":"5473","MEAN_ANOMALY":"290.1419","ELEMENT_SET_NO":"999","RCS_SIZE":"LARGE","TLE_LINE2":"2 46365  53.0532 223.6858 0001039  69.9681 290.1419 15.06410749 54732","MEAN_MOTION_DOT":"0.00002105","GP_ID":"183271867","OBJECT_ID":"2020-062AS","CENTER_NAME":"EARTH","PERIAPSIS":"546.461","INCLINATION":"53.0532","BSTAR":"0.00016009000000","SEMIMAJOR_AXIS":"6925.316","MEAN_MOTION":"15.06410749","TLE_LINE1":"1 46365U 20062AS  21234.68276201  .00002105  00000-0  16009-3 0  9995"},{"LAUNCH_DATE":"2020-09-03","ECCENTRICITY":"0.00010560","CLASSIFICATION_TYPE":"U","FILE":"3101563","MEAN_MOTION_DDOT":"0.0000000000000","REF_FRAME":"TEME","EPOCH":"2021-08-22T22:29:25.040832","SITE":"AFETR","MEAN_ELEMENT_THEORY":"SGP4","PERIOD":"95.592","RA_OF_ASC_NODE":"222.5448","APOAPSIS":"547.930","OBJECT_TYPE":"PAYLOAD","TIME_SYSTEM":"UTC","OBJECT_NAME":"STARLINK-1651","NORAD_CAT_ID":"46366","ARG_OF_PERICENTER":"69.8106","PERIAPSIS":"546.467","BSTAR":"0.00006541900000","INCLINATION":"53.0534","CENTER_NAME":"EARTH","TLE_LINE1":"1 46366U 20062AT  21234.93709538  .00000693  00000-0  65419-4 0  9998","SEMIMAJOR_AXIS":"6925.333","MEAN_MOTION":"15.06404955","EPHEMERIS_TYPE":"0","COUNTRY_CODE":"US","REV_AT_EPOCH":"5477","MEAN_ANOMALY":"290.2997","DECAY_DATE":null,"GP_ID":"183272118","OBJECT_ID":"2020-062AT","RCS_SIZE":"LARGE","ELEMENT_SET_NO":"999","TLE_LINE2":"2 46366  53.0534 222.5448 0001056  69.8106 290.2997 15.06404955 54776","MEAN_MOTION_DOT":"0.00000693"},{"MEAN_ELEMENT_THEORY":"SGP4","PERIOD":"95.593","RA_OF_ASC_NODE":"248.4396","OBJECT_NAME":"STARLINK-1658","NORAD_CAT_ID":"46368","ARG_OF_PERICENTER":"64.0535","APOAPSIS":"547.862","TIME_SYSTEM":"UTC","OBJECT_TYPE":"PAYLOAD","LAUNCH_DATE":"2020-09-03","ECCENTRICITY":"0.00008780","CLASSIFICATION_TYPE":"U","MEAN_MOTION_DDOT":"0.0000000000000","REF_FRAME":"TEME","EPOCH":"2021-08-22T17:42:08.095680","SITE":"AFETR","FILE":"3101563","DECAY_DATE":null,"EPHEMERIS_TYPE":"0","COUNTRY_CODE":"US","REV_AT_EPOCH":"5440","MEAN_ANOMALY":"296.0545","ELEMENT_SET_NO":"999","RCS_SIZE":"LARGE","MEAN_MOTION_DOT":"0.00000406","TLE_LINE2":"2 46368  53.0544 248.4396 0000878  64.0535 296.0545 15.06386929 54405","GP_ID":"183272369","OBJECT_ID":"2020-062AV","CENTER_NAME":"EARTH","INCLINATION":"53.0544","PERIAPSIS":"546.646","BSTAR":"0.00004612500000","SEMIMAJOR_AXIS":"6925.389","MEAN_MOTION":"15.06386929","TLE_LINE1":"1 46368U 20062AV  21234.73759370  .00000406  00000-0  46125-4 0  9992"},{"DECAY_DATE":null,"MEAN_ANOMALY":"255.3634","REV_AT_EPOCH":"5471","EPHEMERIS_TYPE":"0","COUNTRY_CODE":"US","MEAN_MOTION_DOT":"0.01469306","TLE_LINE2":"2 46369  53.0496 236.9085 0001237 104.7519 255.3634 15.68646301 54715","ELEMENT_SET_NO":"999","RCS_SIZE":"LARGE","OBJECT_ID":"2020-062AW","GP_ID":"183247351","CENTER_NAME":"EARTH","BSTAR":"0.01135100000000","PERIAPSIS":"361.941","INCLINATION":"53.0496","MEAN_MOTION":"15.68646301","SEMIMAJOR_AXIS":"6740.909","TLE_LINE1":"1 46369U 20062AW  21234.56379583  .01469306  00000-0  11351-1 0  9997","RA_OF_ASC_NODE":"236.9085","PERIOD":"91.799","MEAN_ELEMENT_THEORY":"SGP4","ARG_OF_PERICENTER":"104.7519","OBJECT_NAME":"STARLINK-1662","NORAD_CAT_ID":"46369","TIME_SYSTEM":"UTC","OBJECT_TYPE":"PAYLOAD","APOAPSIS":"363.608","CLASSIFICATION_TYPE":"U","ECCENTRICITY":"0.00012370","LAUNCH_DATE":"2020-09-03","SITE":"AFETR","EPOCH":"2021-08-22T13:31:51.959712","REF_FRAME":"TEME","MEAN_MOTION_DDOT":"0.0000000000000","FILE":"3101395"}];
